{
  "links" : {
    "next" : "https://api.nasa.gov/neo/rest/v1/feed?start_date=2003-03-09&end_date=2003-03-09&detailed=true&api_key=t0TVs3DtDT2H8Oy2Zy8m2eVrNsAVKAexjcZXUckd",
    "prev" : "https://api.nasa.gov/neo/rest/v1/feed?start_date=2003-03-07&end_date=2003-03-07&detailed=true&api_key=t0TVs3DtDT2H8Oy2Zy8m2eVrNsAVKAexjcZXUckd",
    "self" : "https://api.nasa.gov/neo/rest/v1/feed?start_date=2003-03-08&end_date=2003-03-08&detailed=true&api_key=t0TVs3DtDT2H8Oy2Zy8m2eVrNsAVKAexjcZXUckd"
  },
  "element_count" : 4,
  "near_earth_objects" : {
    "2003-03-08" : [ {
      "links" : {
        "self" : "https://api.nasa.gov/neo/rest/v1/neo/3136736?api_key=t0TVs3DtDT2H8Oy2Zy8m2eVrNsAVKAexjcZXUckd"
      },
      "neo_reference_id" : "3136736",
      "name" : "(2002 SR)",
      "nasa_jpl_url" : "http://ssd.jpl.nasa.gov/sbdb.cgi?sstr=3136736",
      "absolute_magnitude_h" : 21.6,
      "estimated_diameter" : {
        "kilometers" : {
          "estimated_diameter_min" : 0.1272198785,
          "estimated_diameter_max" : 0.2844722965
        },
        "meters" : {
          "estimated_diameter_min" : 127.2198785394,
          "estimated_diameter_max" : 284.4722965033
        },
        "miles" : {
          "estimated_diameter_min" : 0.0790507431,
          "estimated_diameter_max" : 0.1767628354
        },
        "feet" : {
          "estimated_diameter_min" : 417.3880663071,
          "estimated_diameter_max" : 933.3080892598
        }
      },
      "is_potentially_hazardous_asteroid" : false,
      "close_approach_data" : [ {
        "close_approach_date" : "2003-03-08",
        "epoch_date_close_approach" : 1047110400000,
        "relative_velocity" : {
          "kilometers_per_second" : "3.9071595337",
          "kilometers_per_hour" : "14065.7743213805",
          "miles_per_hour" : "8739.9251609711"
        },
        "miss_distance" : {
          "astronomical" : "0.2026008566",
          "lunar" : "78.8117294312",
          "kilometers" : "30308656",
          "miles" : "18832926"
        },
        "orbiting_body" : "Earth"
      } ],
      "orbital_data" : {
        "orbit_id" : "18",
        "orbit_determination_date" : "2017-04-06 09:14:48",
        "orbit_uncertainty" : "0",
        "minimum_orbit_intersection" : ".0516147",
        "jupiter_tisserand_invariant" : "5.339",
        "epoch_osculation" : "2457800.5",
        "eccentricity" : ".1958948805442035",
        "semi_major_axis" : "1.17950904360247",
        "inclination" : "6.689356639226509",
        "ascending_node_longitude" : "160.9053467870721",
        "orbital_period" : "467.8970849457046",
        "perihelion_distance" : ".9484492604051561",
        "perihelion_argument" : "285.1018322997588",
        "aphelion_distance" : "1.410568826799783",
        "perihelion_time" : "2457767.542337626992",
        "mean_anomaly" : "25.35762422127448",
        "mean_motion" : ".7693999633311989",
        "equinox" : "J2000"
      }
    }, {
      "links" : {
        "self" : "https://api.nasa.gov/neo/rest/v1/neo/3267065?api_key=t0TVs3DtDT2H8Oy2Zy8m2eVrNsAVKAexjcZXUckd"
      },
      "neo_reference_id" : "3267065",
      "name" : "(2005 CN)",
      "nasa_jpl_url" : "http://ssd.jpl.nasa.gov/sbdb.cgi?sstr=3267065",
      "absolute_magnitude_h" : 22.8,
      "estimated_diameter" : {
        "kilometers" : {
          "estimated_diameter_min" : 0.0732073989,
          "estimated_diameter_max" : 0.1636967205
        },
        "meters" : {
          "estimated_diameter_min" : 73.2073989347,
          "estimated_diameter_max" : 163.696720474
        },
        "miles" : {
          "estimated_diameter_min" : 0.0454889547,
          "estimated_diameter_max" : 0.1017163949
        },
        "feet" : {
          "estimated_diameter_min" : 240.181762721,
          "estimated_diameter_max" : 537.0627483999
        }
      },
      "is_potentially_hazardous_asteroid" : false,
      "close_approach_data" : [ {
        "close_approach_date" : "2003-03-08",
        "epoch_date_close_approach" : 1047110400000,
        "relative_velocity" : {
          "kilometers_per_second" : "12.1624946994",
          "kilometers_per_hour" : "43784.9809179793",
          "miles_per_hour" : "27206.2843931744"
        },
        "miss_distance" : {
          "astronomical" : "0.2049357404",
          "lunar" : "79.7200012207",
          "kilometers" : "30657952",
          "miles" : "19049968"
        },
        "orbiting_body" : "Earth"
      } ],
      "orbital_data" : {
        "orbit_id" : "21",
        "orbit_determination_date" : "2017-04-06 09:11:30",
        "orbit_uncertainty" : "2",
        "minimum_orbit_intersection" : ".0293221",
        "jupiter_tisserand_invariant" : "5.990",
        "epoch_osculation" : "2458000.5",
        "eccentricity" : ".1848822643792391",
        "semi_major_axis" : "1.01578647650069",
        "inclination" : "2.300296344221766",
        "ascending_node_longitude" : "308.1439601722831",
        "orbital_period" : "373.9401232210299",
        "perihelion_distance" : ".8279855725994334",
        "perihelion_argument" : "321.657327896297",
        "aphelion_distance" : "1.203587380401946",
        "perihelion_time" : "2458014.826271445925",
        "mean_anomaly" : "346.2077979861913",
        "mean_motion" : ".9627209749492699",
        "equinox" : "J2000"
      }
    }, {
      "links" : {
        "self" : "https://api.nasa.gov/neo/rest/v1/neo/3388356?api_key=t0TVs3DtDT2H8Oy2Zy8m2eVrNsAVKAexjcZXUckd"
      },
      "neo_reference_id" : "3388356",
      "name" : "(2007 TF68)",
      "nasa_jpl_url" : "http://ssd.jpl.nasa.gov/sbdb.cgi?sstr=3388356",
      "absolute_magnitude_h" : 22.7,
      "estimated_diameter" : {
        "kilometers" : {
          "estimated_diameter_min" : 0.0766575574,
          "estimated_diameter_max" : 0.1714115092
        },
        "meters" : {
          "estimated_diameter_min" : 76.6575573531,
          "estimated_diameter_max" : 171.4115092306
        },
        "miles" : {
          "estimated_diameter_min" : 0.0476327831,
          "estimated_diameter_max" : 0.1065101409
        },
        "feet" : {
          "estimated_diameter_min" : 251.5011804664,
          "estimated_diameter_max" : 562.3737359442
        }
      },
      "is_potentially_hazardous_asteroid" : false,
      "close_approach_data" : [ {
        "close_approach_date" : "2003-03-08",
        "epoch_date_close_approach" : 1047110400000,
        "relative_velocity" : {
          "kilometers_per_second" : "14.2147548707",
          "kilometers_per_hour" : "51173.1175344628",
          "miles_per_hour" : "31796.9851702333"
        },
        "miss_distance" : {
          "astronomical" : "0.4129052323",
          "lunar" : "160.6201477051",
          "kilometers" : "61769748",
          "miles" : "38381940"
        },
        "orbiting_body" : "Earth"
      } ],
      "orbital_data" : {
        "orbit_id" : "17",
        "orbit_determination_date" : "2017-04-06 09:05:41",
        "orbit_uncertainty" : "0",
        "minimum_orbit_intersection" : ".152437",
        "jupiter_tisserand_invariant" : "4.600",
        "epoch_osculation" : "2454876.5",
        "eccentricity" : ".2651691409660739",
        "semi_major_axis" : "1.40631102290573",
        "inclination" : "26.20153075051784",
        "ascending_node_longitude" : "19.38283845328887",
        "orbital_period" : "609.1447396368023",
        "perihelion_distance" : "1.033400737030697",
        "perihelion_argument" : "62.41303665457799",
        "aphelion_distance" : "1.779221308780764",
        "perihelion_time" : "2455059.809537264377",
        "mean_anomaly" : "251.6654300347031",
        "mean_motion" : ".5909925450799216",
        "equinox" : "J2000"
      }
    }, {
      "links" : {
        "self" : "https://api.nasa.gov/neo/rest/v1/neo/2488615?api_key=t0TVs3DtDT2H8Oy2Zy8m2eVrNsAVKAexjcZXUckd"
      },
      "neo_reference_id" : "2488615",
      "name" : "488615 (2002 SR)",
      "nasa_jpl_url" : "http://ssd.jpl.nasa.gov/sbdb.cgi?sstr=2488615",
      "absolute_magnitude_h" : 21.6,
      "estimated_diameter" : {
        "kilometers" : {
          "estimated_diameter_min" : 0.1272198785,
          "estimated_diameter_max" : 0.2844722965
        },
        "meters" : {
          "estimated_diameter_min" : 127.2198785394,
          "estimated_diameter_max" : 284.4722965033
        },
        "miles" : {
          "estimated_diameter_min" : 0.0790507431,
          "estimated_diameter_max" : 0.1767628354
        },
        "feet" : {
          "estimated_diameter_min" : 417.3880663071,
          "estimated_diameter_max" : 933.3080892598
        }
      },
      "is_potentially_hazardous_asteroid" : false,
      "close_approach_data" : [ {
        "close_approach_date" : "2003-03-08",
        "epoch_date_close_approach" : 1047110400000,
        "relative_velocity" : {
          "kilometers_per_second" : "3.9071595586",
          "kilometers_per_hour" : "14065.774410906",
          "miles_per_hour" : "8739.9252165988"
        },
        "miss_distance" : {
          "astronomical" : "0.2026008566",
          "lunar" : "78.8117294312",
          "kilometers" : "30308656",
          "miles" : "18832926"
        },
        "orbiting_body" : "Earth"
      } ],
      "orbital_data" : {
        "orbit_id" : "19",
        "orbit_determination_date" : "2017-05-15 19:01:37",
        "orbit_uncertainty" : "0",
        "minimum_orbit_intersection" : ".0524467",
        "jupiter_tisserand_invariant" : "5.339",
        "epoch_osculation" : "2458000.5",
        "eccentricity" : ".1959698120308739",
        "semi_major_axis" : "1.179535698994036",
        "inclination" : "6.689210333586633",
        "ascending_node_longitude" : "160.9025064194381",
        "orbital_period" : "467.9129458463167",
        "perihelion_distance" : ".9483823097784695",
        "perihelion_argument" : "285.1219718296516",
        "aphelion_distance" : "1.410689088209603",
        "perihelion_time" : "2457767.571294494846",
        "mean_anomaly" : "179.209262590903",
        "mean_motion" : ".7693738828894038",
        "equinox" : "J2000"
      }
    } ]
  }
}